{
  "norad_id": 63260,
  "name": "TRANSPORTER-13 OBJECT BC",
  "history": [
    {
      "epoch": "2026-03-28T17:50:54.900672Z",
      "apogee_km": 584.6351639722034,
      "perigee_km": 583.7141893836124,
      "latitude_deg": 7.342294951206616e-05,
      "longitude_deg": -113.11721380993446,
      "height_km": 587.6775964886801,
      "semi_major_axis_km": 6962.311676677908,
      "eccentricity": 6.614e-05,
      "inclination_deg": 97.6946,
      "raan_deg": 340.7713,
      "arg_perigee_deg": 171.7919,
      "mean_anomaly_deg": 188.3313,
      "mean_motion_rev_day": 14.94419653
    },
    {
      "epoch": "2026-03-28T22:40:10.196544Z",
      "apogee_km": 584.6427881378095,
      "perigee_km": 583.7014839426174,
      "latitude_deg": 7.771343129524613e-05,
      "longitude_deg": 174.5678647699031,
      "height_km": 587.6844558474423,
      "semi_major_axis_km": 6962.309136040213,
      "eccentricity": 6.76e-05,
      "inclination_deg": 97.6947,
      "raan_deg": 340.9681,
      "arg_perigee_deg": 171.2568,
      "mean_anomaly_deg": 188.8665,
      "mean_motion_rev_day": 14.94420471
    },
    {
      "epoch": "2026-03-29T22:46:26.465088Z",
      "apogee_km": 584.6985028170648,
      "perigee_km": 583.6151698961276,
      "latitude_deg": 1.2106477310126847e-05,
      "longitude_deg": 172.99455102532193,
      "height_km": 587.740392834937,
      "semi_major_axis_km": 6962.293836356596,
      "eccentricity": 7.78e-05,
      "inclination_deg": 97.6945,
      "raan_deg": 341.9525,
      "arg_perigee_deg": 171.9973,
      "mean_anomaly_deg": 188.126,
      "mean_motion_rev_day": 14.94425397
    }
  ]
}